{"type": "FeatureCollection", "features": [ {"type": "Feature", "properties": {"norad_id": 29963, "name": "FENGYUN 1C DEB", "group": "fengyun-1c-debris", "lat": 42.34151897979624, "lon": -122.20911097642963, "alt_km": 819.4619535913334, "timestamp": "2025-12-27T15:27:11.463510+00:00", "meta": {"OBJECT_NAME": "FENGYUN 1C DEB", "OBJECT_ID": "1999-025KM", "EPOCH": "2025-12-27T04:12:01.234656", "MEAN_MOTION": 14.29511169, "ECCENTRICITY": 0.005086, "INCLINATION": 98.9984, "RA_OF_ASC_NODE": 245.6091, "ARG_OF_PERICENTER": 259.9954, "MEAN_ANOMALY": 251.1902, "EPHEMERIS_TYPE": 0, "CLASSIFICATION_TYPE": "U", "NORAD_CAT_ID": 29963, "ELEMENT_SET_NO": 999, "REV_AT_EPOCH": 98349, "BSTAR": 0.00076304424, "MEAN_MOTION_DOT": 1.93e-05, "MEAN_MOTION_DDOT": 0}, "tle": {"line1": "1 29963U 99025KM  25361.17501429  .00001930  00000+0  76304-3 0  9995", "line2": "2 29963  98.9984 245.6091 0050860 259.9954 251.1902 14.29511169983499"}}, "geometry": {"type": "Point", "coordinates": [-122.20911097642963, 42.34151897979624]}}, {"type": "Feature", "properties": {"norad_id": 29964, "name": "FENGYUN 1C DEB", "group": "fengyun-1c-debris", "lat": -54.192813346405266, "lon": -145.26438386967655, "alt_km": 869.9601362634257, "timestamp": "2025-12-27T15:27:11.463520+00:00", "meta": {"OBJECT_NAME": "FENGYUN 1C DEB", "OBJECT_ID": "1999-025KN", "EPOCH": "2025-12-27T02:01:19.166304", "MEAN_MOTION": 14.02778547, "ECCENTRICITY": 0.01309792, "INCLINATION": 98.37, "RA_OF_ASC_NODE": 202.4454, "ARG_OF_PERICENTER": 228.7413, "MEAN_ANOMALY": 130.2413, "EPHEMERIS_TYPE": 0, "CLASSIFICATION_TYPE": "U", "NORAD_CAT_ID": 29964, "ELEMENT_SET_NO": 999, "REV_AT_EPOCH": 96518, "BSTAR": 0.00092023928, "MEAN_MOTION_DOT": 1.495e-05, "MEAN_MOTION_DDOT": 0}, "tle": {"line1": "1 29964U 99025KN  25361.08424961  .00001495  00000+0  92024-3 0  9994", "line2": "2 29964  98.3700 202.4454 0130979 228.7413 130.2413 14.02778547965184"}}, "geometry": {"type": "Point", "coordinates": [-145.26438386967655, -54.192813346405266]}}, {"type": "Feature", "properties": {"norad_id": 29965, "name": "FENGYUN 1C DEB", "group": "fengyun-1c-debris", "lat": 40.18885304019407, "lon": -11.788942400288908, "alt_km": 801.8833163189274, "timestamp": "2025-12-27T15:27:11.463530+00:00", "meta": {"OBJECT_NAME": "FENGYUN 1C DEB", "OBJECT_ID": "1999-025KP", "EPOCH": "2025-12-27T00:05:33.668160", "MEAN_MOTION": 13.9578294, "ECCENTRICITY": 0.0145763, "INCLINATION": 98.9633, "RA_OF_ASC_NODE": 355.2498, "ARG_OF_PERICENTER": 29.0341, "MEAN_ANOMALY": 37.2203, "EPHEMERIS_TYPE": 0, "CLASSIFICATION_TYPE": "U", "NORAD_CAT_ID": 29965, "ELEMENT_SET_NO": 999, "REV_AT_EPOCH": 96475, "BSTAR": 0.00033596, "MEAN_MOTION_DOT": 4.58e-06, "MEAN_MOTION_DDOT": 0}, "tle": {"line1": "1 29965U 99025KP  25361.00386190  .00000458  00000+0  33596-3 0  9995", "line2": "2 29965  98.9633 355.2498 0145763  29.0341  37.2203 13.95782940964758"}}, "geometry": {"type": "Point", "coordinates": [-11.788942400288908, 40.18885304019407]}}, {"type": "Feature", "properties": {"norad_id": 29966, "name": "FENGYUN 1C DEB", "group": "fengyun-1c-debris", "lat": 51.653852557704035, "lon": -162.3774551697847, "alt_km": 810.4417604339242, "timestamp": "2025-12-27T15:27:11.463540+00:00", "meta": {"OBJECT_NAME": "FENGYUN 1C DEB", "OBJECT_ID": "1999-025KQ", "EPOCH": "2025-12-27T03:25:03.762624", "MEAN_MOTION": 14.25779468, "ECCENTRICITY": 0.00391697, "INCLINATION": 99.4908, "RA_OF_ASC_NODE": 209.2885, "ARG_OF_PERICENTER": 304.3823, "MEAN_ANOMALY": 55.3652, "EPHEMERIS_TYPE": 0, "CLASSIFICATION_TYPE": "U", "NORAD_CAT_ID": 29966, "ELEMENT_SET_NO": 999, "REV_AT_EPOCH": 98248, "BSTAR": 0.00044230341, "MEAN_MOTION_DOT": 1.008e-05, "MEAN_MOTION_DDOT": 0}, "tle": {"line1": "1 29966U 99025KQ  25361.14240466  .00001008  00000+0  44230-3 0  9995", "line2": "2 29966  99.4908 209.2885 0039169 304.3823  55.3652 14.25779468982488"}}, "geometry": {"type": "Point", "coordinates": [-162.3774551697847, 51.653852557704035]}}, {"type": "Feature", "properties": {"norad_id": 29967, "name": "FENGYUN 1C DEB", "group": "fengyun-1c-debris", "lat": 66.64370056884559, "lon": -80.44946636118087, "alt_km": 847.0270522076935, "timestamp": "2025-12-27T15:27:11.463551+00:00", "meta": {"OBJECT_NAME": "FENGYUN 1C DEB", "OBJECT_ID": "1999-025KR", "EPOCH": "2025-12-25T04:01:46.363008", "MEAN_MOTION": 14.23674669, "ECCENTRICITY": 0.0076868, "INCLINATION": 98.8643, "RA_OF_ASC_NODE": 75.8707, "ARG_OF_PERICENTER": 256.4569, "MEAN_ANOMALY": 132.8645, "EPHEMERIS_TYPE": 0, "CLASSIFICATION_TYPE": "U", "NORAD_CAT_ID": 29967, "ELEMENT_SET_NO": 999, "REV_AT_EPOCH": 97399, "BSTAR": 0.0015964, "MEAN_MOTION_DOT": 3.711e-05, "MEAN_MOTION_DDOT": 0}, "tle": {"line1": "1 29967U 99025KR  25359.16789772  .00003711  00000+0  15964-2 0  9997", "line2": "2 29967  98.8643  75.8707 0076868 256.4569 132.8645 14.23674669973993"}}, "geometry": {"type": "Point", "coordinates": [-80.44946636118087, 66.64370056884559]}}, {"type": "Feature", "properties": {"norad_id": 29968, "name": "FENGYUN 1C DEB", "group": "fengyun-1c-debris", "lat": -54.39984396414648, "lon": 158.504671733926, "alt_km": 861.018678304742, "timestamp": "2025-12-27T15:27:11.463561+00:00", "meta": {"OBJECT_NAME": "FENGYUN 1C DEB", "OBJECT_ID": "1999-025KS", "EPOCH": "2025-12-27T05:52:39.506016", "MEAN_MOTION": 14.07268505, "ECCENTRICITY": 0.00893978, "INCLINATION": 98.8056, "RA_OF_ASC_NODE": 350.62, "ARG_OF_PERICENTER": 313.8147, "MEAN_ANOMALY": 62.2965, "EPHEMERIS_TYPE": 0, "CLASSIFICATION_TYPE": "U", "NORAD_CAT_ID": 29968, "ELEMENT_SET_NO": 999, "REV_AT_EPOCH": 97253, "BSTAR": 0.00023668421, "MEAN_MOTION_DOT": 3.68e-06, "MEAN_MOTION_DDOT": 0}, "tle": {"line1": "1 29968U 99025KS  25361.24490169  .00000368  00000+0  23668-3 0  9995", "line2": "2 29968  98.8056 350.6200 0089397 313.8147  62.2965 14.07268505972535"}}, "geometry": {"type": "Point", "coordinates": [158.504671733926, -54.39984396414648]}}, {"type": "Feature", "properties": {"norad_id": 29969, "name": "FENGYUN 1C DEB", "group": "fengyun-1c-debris", "lat": -65.99391242890536, "lon": -114.13775299016541, "alt_km": 801.1391637244387, "timestamp": "2025-12-27T15:27:11.463571+00:00", "meta": {"OBJECT_NAME": "FENGYUN 1C DEB", "OBJECT_ID": "1999-025KT", "EPOCH": "2025-12-27T04:31:21.126144", "MEAN_MOTION": 14.33348882, "ECCENTRICITY": 0.00408013, "INCLINATION": 98.7701, "RA_OF_ASC_NODE": 85.6823, "ARG_OF_PERICENTER": 6.3483, "MEAN_ANOMALY": 52.8035, "EPHEMERIS_TYPE": 0, "CLASSIFICATION_TYPE": "U", "NORAD_CAT_ID": 29969, "ELEMENT_SET_NO": 999, "REV_AT_EPOCH": 97869, "BSTAR": 0.001953102, "MEAN_MOTION_DOT": 5.391e-05, "MEAN_MOTION_DDOT": 0}, "tle": {"line1": "1 29969U 99025KT  25361.18843896  .00005391  00000+0  19531-2 0  9992", "line2": "2 29969  98.7701  85.6823 0040801   6.3483  52.8035 14.33348882978694"}}, "geometry": {"type": "Point", "coordinates": [-114.13775299016541, -65.99391242890536]}}, {"type": "Feature", "properties": {"norad_id": 29970, "name": "FENGYUN 1C DEB", "group": "fengyun-1c-debris", "lat": -52.80532013098551, "lon": -57.728272525932766, "alt_km": 814.722435828703, "timestamp": "2025-12-27T15:27:11.463581+00:00", "meta": {"OBJECT_NAME": "FENGYUN 1C DEB", "OBJECT_ID": "1999-025KU", "EPOCH": "2025-12-27T07:55:34.980672", "MEAN_MOTION": 14.43994132, "ECCENTRICITY": 0.00915269, "INCLINATION": 98.8099, "RA_OF_ASC_NODE": 290.1552, "ARG_OF_PERICENTER": 143.8897, "MEAN_ANOMALY": 332.8049, "EPHEMERIS_TYPE": 0, "CLASSIFICATION_TYPE": "U", "NORAD_CAT_ID": 29970, "ELEMENT_SET_NO": 999, "REV_AT_EPOCH": 99331, "BSTAR": 0.00044664141, "MEAN_MOTION_DOT": 1.557e-05, "MEAN_MOTION_DDOT": 0}, "tle": {"line1": "1 29970U 99025KU  25361.33026598  .00001557  00000+0  44664-3 0  9999", "line2": "2 29970  98.8099 290.1552 0091526 143.8897 332.8049 14.43994132993313"}}, "geometry": {"type": "Point", "coordinates": [-57.728272525932766, -52.80532013098551]}}, {"type": "Feature", "properties": {"norad_id": 29971, "name": "FENGYUN 1C DEB", "group": "fengyun-1c-debris", "lat": -16.493493249223075, "lon": 43.68118204371748, "alt_km": 850.0186801111477, "timestamp": "2025-12-27T15:27:11.463592+00:00", "meta": {"OBJECT_NAME": "FENGYUN 1C DEB", "OBJECT_ID": "1999-025KV", "EPOCH": "2025-12-27T02:07:32.810016", "MEAN_MOTION": 14.18226397, "ECCENTRICITY": 0.00241779, "INCLINATION": 98.682, "RA_OF_ASC_NODE": 40.545, "ARG_OF_PERICENTER": 127.8522, "MEAN_ANOMALY": 262.1435, "EPHEMERIS_TYPE": 0, "CLASSIFICATION_TYPE": "U", "NORAD_CAT_ID": 29971, "ELEMENT_SET_NO": 999, "REV_AT_EPOCH": 97543, "BSTAR": 0.00088374213, "MEAN_MOTION_DOT": 1.78e-05, "MEAN_MOTION_DDOT": 0}, "tle": {"line1": "1 29971U 99025KV  25361.08857419  .00001780  00000+0  88374-3 0  9990", "line2": "2 29971  98.6820  40.5450 0024177 127.8522 262.1435 14.18226397975433"}}, "geometry": {"type": "Point", "coordinates": [43.68118204371748, -16.493493249223075]}}, {"type": "Feature", "properties": {"norad_id": 29972, "name": "FENGYUN 1C DEB", "group": "fengyun-1c-debris", "lat": -30.884254147588386, "lon": -170.3564243015544, "alt_km": 696.941734319329, "timestamp": "2025-12-27T15:27:11.463602+00:00", "meta": {"OBJECT_NAME": "FENGYUN 1C DEB", "OBJECT_ID": "1999-025KW", "EPOCH": "2025-12-27T00:02:32.018208", "MEAN_MOTION": 14.66540467, "ECCENTRICITY": 0.0063987, "INCLINATION": 98.9209, "RA_OF_ASC_NODE": 14.3367, "ARG_OF_PERICENTER": 328.2124, "MEAN_ANOMALY": 95.5003, "EPHEMERIS_TYPE": 0, "CLASSIFICATION_TYPE": "U", "NORAD_CAT_ID": 29972, "ELEMENT_SET_NO": 999, "REV_AT_EPOCH": 99695, "BSTAR": 0.0015617, "MEAN_MOTION_DOT": 8.879e-05, "MEAN_MOTION_DDOT": 0}, "tle": {"line1": "1 29972U 99025KW  25361.00175947  .00008879  00000+0  15617-2 0  9997", "line2": "2 29972  98.9209  14.3367 0063987 328.2124  95.5003 14.66540467996950"}}, "geometry": {"type": "Point", "coordinates": [-170.3564243015544, -30.884254147588386]}}]}